CUBEBUG-2 (LO-74)
1 39440U 13066AA  26200.81657757  .00001790  00000-0  16876-3 0  9990
2 39440  97.8920 149.9413 0055546 279.7020  79.7928 14.93985325681860
FUNCUBE-1 (AO-73)
1 39444U 13066AE  26200.86555310  .00004474  00000-0  27601-3 0  9991
2 39444  97.8300 173.0059 0038023  92.4857 268.0725 15.09856999684592
UWE-3
1 39446U 13066AG  26200.83144103  .00002164  00000-0  18817-3 0  9997
2 39446  97.8723 157.1335 0047670 208.5998 151.2608 14.97218739682464
UNISAT-6
1 40012U 14033C   26200.40415317  .00001023  00000-0  11466-3 0  9990
2 40012  97.7915 352.5583 0043842 323.6354  36.1886 14.88375991650957
DUCHIFAT-1
1 40021U 14033M   26200.69128598  .00096791  00000-0  73904-3 0  9994
2 40021  98.0410 264.6092 0003278 229.8179 130.2795 15.71893278660840
LILACSAT-2
1 40908U 15049K   26200.83264144  .00011361  00000-0  18712-3 0  9996
2 40908  97.4625 238.9328 0008583 128.1087 232.0941 15.52462057600815
CAS-2T & KS-1Q
1 41847U 16066G   26200.79114971  .00000405  00000-0  65502-4 0  9993
2 41847  98.3811 276.1543 0341998  30.8342 331.2453 14.44775079509506
FOX-1B (AO-91)
1 43017U 17073E   26200.88064495  .00003272  00000-0  14432-3 0  9998
2 43017  97.4661  67.4292 0148425 215.1388 143.9985 15.13097485470331
FUNCUBE-3 (EO-79)/QB50P1
1 40025U 14033R   26200.83436966  .00004354  00000-0  21335-3 0  9990
2 40025  98.0972 214.2811 0010516 111.1602 249.0755 15.18706912657989
FOX-1A (AO-85)
1 40967U 15058D   26200.34570337  .00001693  00000-0  15937-3 0  9994
2 40967  64.7726 179.0327 0132708  44.2393 316.9236 14.91103340118360
DIWATA-2B (PO-101)
1 43678U 18084H   26200.84539506  .00001076  00000-0  90347-4 0  9990
2 43678  98.1216  38.4843 0012582  70.0100 290.2476 15.00573604421113
ESHAIL-2
1 43700U 18090A   26200.86942573  .00000141  00000-0  00000+0 0  9991
2 43700   0.0196  79.3267 0002419  78.3748 118.7314  1.00273766 28006
ITASAT-1
1 43786U 18099AE  26200.62435112  .00003259  00000-0  15690-3 0  9992
2 43786  97.4008 251.4933 0011118 232.9708 127.0510 15.19411242417837
FOX-1CLIFF (AO-95)
1 43770U 18099N   26200.71065676  .00005896  00000-0  22293-3 0  9995
2 43770  97.4362 260.8482 0007617 221.4673 138.5989 15.27327547418188
JY1SAT (JO-97)
1 43803U 18099AX  26200.70791220  .00009273  00000-0  27868-3 0  9998
2 43803  97.4105 263.6744 0007183 144.6783 215.4937 15.34606199418615
UWE-4
1 43880U 18111E   26200.74821662  .00018901  00000-0  36288-3 0  9990
2 43880  97.5828 130.6868 0006845 177.3378 182.7909 15.47997215415810
CAS-6 (TO-108)
1 44881U 19093C   26200.82541451  .00000813  00000-0  97648-4 0  9997
2 44881  97.7513 272.2597 0013122 346.2300  13.8556 14.86565370356265
DOSAAF-85 (RS-44)
1 44909U 19096E   26200.76279995  .00000005  00000-0 -31876-4 0  9990
2 44909  82.5239 318.0601 0218440  68.3655 294.0559 12.79748859306517
SALSAT (TUBSAT 22)
1 46495U 20068K   26200.45326485  .00003827  00000-0  13372-3 0  9990
2 46495  97.8865 205.4942 0009672 177.8105 182.3178 15.30206359320292
CAMSAT XW-3 (CAS-9)
1 50466U 21131B   26200.88954635  .00000194  00000-0  73582-4 0  9990
2 50466  98.4984 293.1030 0004285  18.1654 341.9687 14.41383829239822
ROBUSTA 1F (MTCUBE-2)
1 53109U 22080E   26200.24539926 -.00000003  00000-0  00000-0 0  9994
2 53109  70.1403 287.0980 0009086 282.5487  77.4156  6.42583325 94122
UMKA-1 (RS40S)
1 57172U 23091G   26200.85642304  .00003018  00000-0  13844-3 0  9994
2 57172  97.5029 259.4321 0012568  13.9068 346.2511 15.21149926168974
CUBESX-HSE-3 (RS42S)
1 57178U 23091N   26200.84012285  .00007019  00000-0  22987-3 0  9991
2 57178  97.5069 266.8547 0009213 344.4670  15.6287 15.31950012169425
MONITOR-3 (RS58S)
1 57180U 23091Q   26200.80741610  .00005316  00000-0  19466-3 0  9997
2 57180  97.5061 264.5036 0010496 353.1513   6.9581 15.28422437169270
MONITOR-4 (RS57S)
1 57182U 23091S   26200.85011602  .00005569  00000-0  20321-3 0  9997
2 57182  97.5054 264.5196 0010489 353.2348   6.8748 15.28510520169286
MONITOR-2 (RS39S)
1 57184U 23091U   26200.85355863  .00002417  00000-0  11809-3 0  9999
2 57184  97.5051 258.9278 0010927   8.3843 351.7572 15.19177280168916
SVYATOBOR-1 (RS60S)
1 57187U 23091X   26200.82679819  .00004480  00000-0  17125-3 0  9998
2 57187  97.5067 264.8328 0008268 347.5545  12.5488 15.27105796169292
VIZARD-METEO (RS38S)
1 57189U 23091Z   26200.83971924  .00008991  00000-0  25095-3 0  9999
2 57189  97.5069 270.9999 0005313 319.4661  40.6186 15.36959582169706
UTMN-2 (RS27S)
1 57203U 23091AP  26200.84014830  .00006488  00000-0  20750-3 0  9993
2 57203  97.5065 268.5282 0006319 331.6078  28.4818 15.32764912169547
POLYTECH UNIVERSE-3 (RS46S)
1 57191U 23091AB  26200.81042949  .00002352  00000-0  11411-3 0  9998
2 57191  97.5026 258.3892 0015626  22.2714 337.9196 15.19390196168905
