OBJECT_NAME,OBJECT_ID,EPOCH,MEAN_MOTION,ECCENTRICITY,INCLINATION,RA_OF_ASC_NODE,ARG_OF_PERICENTER,MEAN_ANOMALY,EPHEMERIS_TYPE,CLASSIFICATION_TYPE,NORAD_CAT_ID,ELEMENT_SET_NO,REV_AT_EPOCH,BSTAR,MEAN_MOTION_DOT,MEAN_MOTION_DDOT
CUBEBUG-2 (LO-74),2013-066AA,2026-07-19T19:35:52.302048,14.93985325,.0055546,97.8920,149.9413,279.7020,79.7928,0,U,39440,999,68186,.16876E-3,.179E-4,0
FUNCUBE-1 (AO-73),2013-066AE,2026-07-19T20:46:23.787840,15.09856999,.0038023,97.8300,173.0059,92.4857,268.0725,0,U,39444,999,68459,.27601E-3,.4474E-4,0
UWE-3,2013-066AG,2026-07-19T19:57:16.504992,14.97218739,.004767,97.8723,157.1335,208.5998,151.2608,0,U,39446,999,68246,.18817E-3,.2164E-4,0
UNISAT-6,2014-033C,2026-07-19T09:41:58.833888,14.88375991,.00438416,97.7915,352.5583,323.6354,36.1886,0,U,40012,999,65095,.11466391E-3,.1023E-4,0
DUCHIFAT-1,2014-033M,2026-07-19T16:35:27.108672,15.71893278,.0003278,98.0410,264.6092,229.8179,130.2795,0,U,40021,999,66084,.73904E-3,.96791E-3,0
QB50P1,2014-033R,2026-07-19T20:01:29.538624,15.18706912,.0010516,98.0972,214.2811,111.1602,249.0755,0,U,40025,999,65798,.21335E-3,.4354E-4,0
LILACSAT-2,2015-049K,2026-07-19T19:59:00.220416,15.52462057,.0008583,97.4625,238.9328,128.1087,232.0941,0,U,40908,999,60081,.18712E-3,.11361E-3,0
FOX-1A (AO-85),2015-058D,2026-07-19T08:17:48.771168,14.91103340,.01327083,64.7726,179.0327,44.2393,316.9236,0,U,40967,999,11836,.15936763E-3,.1693E-4,0
CAS-2T & KS-1Q,2016-066G,2026-07-19T18:59:15.334944,14.44775079,.0341998,98.3811,276.1543,30.8342,331.2453,0,U,41847,999,50950,.65502E-4,.405E-5,0
RADFXSAT (FOX-1B),2017-073E,2026-07-19T21:08:07.723680,15.13097485,.0148425,97.4661,67.4292,215.1388,143.9985,0,U,43017,999,47033,.14432E-3,.3272E-4,0
DIWATA-2B,2018-084H,2026-07-19T20:17:22.133184,15.00573604,.0012582,98.1216,38.4843,70.0100,290.2476,0,U,43678,999,42111,.90347E-4,.1076E-4,0
ES'HAIL 2,2018-090A,2026-07-19T20:51:58.383072,1.00273766,.0002419,0.0196,79.3267,78.3748,118.7314,0,U,43700,999,2800,0,.141E-5,0
FOX-1CLIFF (AO-95),2018-099N,2026-07-19T17:03:20.744064,15.27327547,.0007617,97.4362,260.8482,221.4673,138.5989,0,U,43770,999,41818,.22293E-3,.5896E-4,0
ITASAT,2018-099AE,2026-07-19T14:59:03.936768,15.19411242,.0011118,97.4008,251.4933,232.9708,127.0510,0,U,43786,999,41783,.1569E-3,.3259E-4,0
JY1SAT (JO-97),2018-099AX,2026-07-19T16:59:23.614080,15.34606199,.0007183,97.4105,263.6744,144.6783,215.4937,0,U,43803,999,41861,.27868E-3,.9273E-4,0
UWE-4,2018-111E,2026-07-19T17:57:25.915968,15.47997215,.0006845,97.5828,130.6868,177.3378,182.7909,0,U,43880,999,41581,.36288E-3,.18901E-3,0
TIANYAN 01,2019-093C,2026-07-19T19:48:35.813664,14.86565370,.0013122,97.7513,272.2597,346.2300,13.8556,0,U,44881,999,35626,.97648E-4,.813E-5,0
RS-44 & BREEZE-KM R/B,2019-096E,2026-07-19T18:18:25.915680,12.79748859,.021844,82.5239,318.0601,68.3655,294.0559,0,U,44909,999,30651,-.31876E-4,.5E-7,0
SALSAT,2020-068K,2026-07-19T10:52:42.083040,15.30206359,.00096718,97.8865,205.4942,177.8105,182.3178,0,U,46495,999,32029,.13371977E-3,.3827E-4,0
XW-3 (CAS-9),2021-131B,2026-07-19T21:20:56.804640,14.41383829,.0004285,98.4984,293.1030,18.1654,341.9687,0,U,50466,999,23982,.73582E-4,.194E-5,0
GREENCUBE (IO-117),2022-080E,2026-07-19T05:53:22.496064,6.42583325,.00090857,70.1403,287.0980,282.5487,77.4156,0,U,53109,999,9412,0,-.3E-7,0
UMKA 1 (RS40S),2023-091G,2026-07-19T20:33:14.950656,15.21149926,.0012568,97.5029,259.4321,13.9068,346.2511,0,U,57172,999,16897,.13844E-3,.3018E-4,0
CUBESX-HSE 3 (RS42S),2023-091N,2026-07-19T20:09:46.614240,15.31950012,.0009213,97.5069,266.8547,344.4670,15.6287,0,U,57178,999,16942,.22987E-3,.7019E-4,0
MONITOR-3 (RS58S),2023-091Q,2026-07-19T19:22:40.751040,15.28422437,.0010496,97.5061,264.5036,353.1513,6.9581,0,U,57180,999,16927,.19466E-3,.5316E-4,0
MONITOR-4 (RS57S),2023-091S,2026-07-19T20:24:10.024128,15.28510520,.0010489,97.5054,264.5196,353.2348,6.8748,0,U,57182,999,16928,.20321E-3,.5569E-4,0
MONITOR-2 (RS39S),2023-091U,2026-07-19T20:29:07.465632,15.19177280,.0010927,97.5051,258.9278,8.3843,351.7572,0,U,57184,999,16891,.11809E-3,.2417E-4,0
SVYATOBOR 1 (RS60S),2023-091X,2026-07-19T19:50:35.363616,15.27105796,.0008268,97.5067,264.8328,347.5545,12.5488,0,U,57187,999,16929,.17125E-3,.448E-4,0
VIZARD-METEO (RS38S),2023-091Z,2026-07-19T20:09:11.742336,15.36959582,.0005313,97.5069,270.9999,319.4661,40.6186,0,U,57189,999,16970,.25095E-3,.8991E-4,0
POLYTECH-UNIVERSE 3 (RS46S),2023-091AB,2026-07-19T19:27:01.107936,15.19390196,.0015626,97.5026,258.3892,22.2714,337.9196,0,U,57191,999,16890,.11411E-3,.2352E-4,0
UTMN 2 (RS27S),2023-091AP,2026-07-19T20:09:48.813120,15.32764912,.0006319,97.5065,268.5282,331.6078,28.4818,0,U,57203,999,16954,.2075E-3,.6488E-4,0
